[{"OBJECT_NAME":"STARLINK-2443","OBJECT_ID":"2021-027R","EPOCH":"2026-03-09T12:57:59.498208","MEAN_MOTION":15.06613469,"ECCENTRICITY":0.00012759,"INCLINATION":53.056,"RA_OF_ASC_NODE":152.2838,"ARG_OF_PERICENTER":139.4274,"MEAN_ANOMALY":220.681,"EPHEMERIS_TYPE":0,"CLASSIFICATION_TYPE":"U","NORAD_CAT_ID":48107,"ELEMENT_SET_NO":999,"REV_AT_EPOCH":27267,"BSTAR":0.0018192984,"MEAN_MOTION_DOT":0.00027078,"MEAN_MOTION_DDOT":0},{"OBJECT_NAME":"OBJECT M","OBJECT_ID":"2017-042M","EPOCH":"2026-03-09T22:38:39.337440","MEAN_MOTION":15.07991931,"ECCENTRICITY":0.0005117,"INCLINATION":97.4139,"RA_OF_ASC_NODE":234.2602,"ARG_OF_PERICENTER":83.1417,"MEAN_ANOMALY":277.0393,"EPHEMERIS_TYPE":0,"CLASSIFICATION_TYPE":"U","NORAD_CAT_ID":42836,"ELEMENT_SET_NO":999,"REV_AT_EPOCH":47205,"BSTAR":0.00047182615,"MEAN_MOTION_DOT":7.201e-5,"MEAN_MOTION_DDOT":0}]
